{"type": "FeatureCollection", "features": [ {"type": "Feature", "properties": {"norad_id": 32260, "name": "GPS BIIRM-4 (PRN 15)", "group": "gnss", "lat": 52.60690599660962, "lon": -164.50051383054074, "alt_km": 19756.140203026298, "timestamp": "2025-12-18T08:58:43.652694+00:00", "meta": {"OBJECT_NAME": "GPS BIIRM-4 (PRN 15)", "OBJECT_ID": "2007-047A", "EPOCH": "2025-12-16T05:50:40.680960", "MEAN_MOTION": 2.00564415, "ECCENTRICITY": 0.01640743, "INCLINATION": 53.9576, "RA_OF_ASC_NODE": 87.6137, "ARG_OF_PERICENTER": 85.2864, "MEAN_ANOMALY": 276.5744, "EPHEMERIS_TYPE": 0, "CLASSIFICATION_TYPE": "U", "NORAD_CAT_ID": 32260, "ELEMENT_SET_NO": 999, "REV_AT_EPOCH": 13314, "BSTAR": 0, "MEAN_MOTION_DOT": -5.5e-07, "MEAN_MOTION_DDOT": 0}, "tle": {"line1": "1 32260U 07047A   25350.24352640 -.00000055  00000+0  00000+0 0  9991", "line2": "2 32260  53.9576  87.6137 0164074  85.2864 276.5744  2.00564415133141"}}, "geometry": {"type": "Point", "coordinates": [-164.50051383054074, 52.60690599660962]}}, {"type": "Feature", "properties": {"norad_id": 32275, "name": "COSMOS 2433 (720)", "group": "gnss", "lat": 65.3275759631842, "lon": 62.183606543961105, "alt_km": 19135.74603325802, "timestamp": "2025-12-18T08:58:43.652706+00:00", "meta": {"OBJECT_NAME": "COSMOS 2433 (720)", "OBJECT_ID": "2007-052A", "EPOCH": "2025-12-14T23:11:38.718240", "MEAN_MOTION": 2.13103955, "ECCENTRICITY": 0.00054201, "INCLINATION": 65.6819, "RA_OF_ASC_NODE": 322.1305, "ARG_OF_PERICENTER": 253.5649, "MEAN_ANOMALY": 106.3736, "EPHEMERIS_TYPE": 0, "CLASSIFICATION_TYPE": "U", "NORAD_CAT_ID": 32275, "ELEMENT_SET_NO": 999, "REV_AT_EPOCH": 14113, "BSTAR": 0, "MEAN_MOTION_DOT": -6.5e-07, "MEAN_MOTION_DDOT": 0}, "tle": {"line1": "1 32275U 07052A   25348.96642035 -.00000065  00000+0  00000+0 0  9990", "line2": "2 32275  65.6819 322.1305 0005420 253.5649 106.3736  2.13103955141132"}}, "geometry": {"type": "Point", "coordinates": [62.183606543961105, 65.3275759631842]}}, {"type": "Feature", "properties": {"norad_id": 32276, "name": "COSMOS 2432 (719)", "group": "gnss", "lat": 34.82587943886273, "lon": -19.55478014262584, "alt_km": 19124.006985858843, "timestamp": "2025-12-18T08:58:43.652718+00:00", "meta": {"OBJECT_NAME": "COSMOS 2432 (719)", "OBJECT_ID": "2007-052B", "EPOCH": "2025-12-15T06:31:38.583840", "MEAN_MOTION": 2.13103103, "ECCENTRICITY": 0.00112605, "INCLINATION": 65.6973, "RA_OF_ASC_NODE": 322.2446, "ARG_OF_PERICENTER": 312.4858, "MEAN_ANOMALY": 226.3212, "EPHEMERIS_TYPE": 0, "CLASSIFICATION_TYPE": "U", "NORAD_CAT_ID": 32276, "ELEMENT_SET_NO": 999, "REV_AT_EPOCH": 14116, "BSTAR": 0, "MEAN_MOTION_DOT": -6.6e-07, "MEAN_MOTION_DDOT": 0}, "tle": {"line1": "1 32276U 07052B   25349.27197435 -.00000066  00000+0  00000+0 0  9996", "line2": "2 32276  65.6973 322.2446 0011260 312.4858 226.3212  2.13103103141167"}}, "geometry": {"type": "Point", "coordinates": [-19.55478014262584, 34.82587943886273]}}, {"type": "Feature", "properties": {"norad_id": 32384, "name": "GPS BIIRM-5 (PRN 29)", "group": "gnss", "lat": -39.04494999337926, "lon": 135.717402021582, "alt_km": 20152.97152369151, "timestamp": "2025-12-18T08:58:43.652731+00:00", "meta": {"OBJECT_NAME": "GPS BIIRM-5 (PRN 29)", "OBJECT_ID": "2007-062A", "EPOCH": "2025-12-16T19:22:21.732672", "MEAN_MOTION": 2.00577594, "ECCENTRICITY": 0.0032249, "INCLINATION": 55.1786, "RA_OF_ASC_NODE": 281.4828, "ARG_OF_PERICENTER": 162.2986, "MEAN_ANOMALY": 15.9546, "EPHEMERIS_TYPE": 0, "CLASSIFICATION_TYPE": "U", "NORAD_CAT_ID": 32384, "ELEMENT_SET_NO": 999, "REV_AT_EPOCH": 13185, "BSTAR": 0, "MEAN_MOTION_DOT": -6.1e-07, "MEAN_MOTION_DDOT": 0}, "tle": {"line1": "1 32384U 07062A   25350.80719598 -.00000061  00000+0  00000+0 0  9993", "line2": "2 32384  55.1786 281.4828 0032249 162.2986  15.9546  2.00577594131858"}}, "geometry": {"type": "Point", "coordinates": [135.717402021582, -39.04494999337926]}}, {"type": "Feature", "properties": {"norad_id": 32393, "name": "COSMOS 2434 (721)", "group": "gnss", "lat": -13.757035195132957, "lon": -168.75173917694727, "alt_km": 19131.551765583277, "timestamp": "2025-12-18T08:58:43.652743+00:00", "meta": {"OBJECT_NAME": "COSMOS 2434 (721)", "OBJECT_ID": "2007-065A", "EPOCH": "2025-12-15T08:26:38.759136", "MEAN_MOTION": 2.13101367, "ECCENTRICITY": 0.00044341, "INCLINATION": 64.3148, "RA_OF_ASC_NODE": 198.1152, "ARG_OF_PERICENTER": 71.4602, "MEAN_ANOMALY": 114.7825, "EPHEMERIS_TYPE": 0, "CLASSIFICATION_TYPE": "U", "NORAD_CAT_ID": 32393, "ELEMENT_SET_NO": 999, "REV_AT_EPOCH": 13985, "BSTAR": 0, "MEAN_MOTION_DOT": 1.05e-06, "MEAN_MOTION_DDOT": 0}, "tle": {"line1": "1 32393U 07065A   25349.35183749  .00000105  00000+0  00000+0 0  9995", "line2": "2 32393  64.3148 198.1152 0004434  71.4602 114.7825  2.13101367139858"}}, "geometry": {"type": "Point", "coordinates": [-168.75173917694727, -13.757035195132957]}}, {"type": "Feature", "properties": {"norad_id": 32395, "name": "COSMOS 2436 (723)", "group": "gnss", "lat": 52.690078559402444, "lon": -21.071701451694477, "alt_km": 19138.562790606924, "timestamp": "2025-12-18T08:58:43.652754+00:00", "meta": {"OBJECT_NAME": "COSMOS 2436 (723)", "OBJECT_ID": "2007-065C", "EPOCH": "2025-12-16T08:11:52.503360", "MEAN_MOTION": 2.13100112, "ECCENTRICITY": 0.00177699, "INCLINATION": 64.3235, "RA_OF_ASC_NODE": 198.1521, "ARG_OF_PERICENTER": 9.2217, "MEAN_ANOMALY": 349.3751, "EPHEMERIS_TYPE": 0, "CLASSIFICATION_TYPE": "U", "NORAD_CAT_ID": 32395, "ELEMENT_SET_NO": 999, "REV_AT_EPOCH": 13982, "BSTAR": 0, "MEAN_MOTION_DOT": 1.1e-06, "MEAN_MOTION_DDOT": 0}, "tle": {"line1": "1 32395U 07065C   25350.34157990  .00000110  00000+0  00000+0 0  9993", "line2": "2 32395  64.3235 198.1521 0017769   9.2217 349.3751  2.13100112139821"}}, "geometry": {"type": "Point", "coordinates": [-21.071701451694477, 52.690078559402444]}}, {"type": "Feature", "properties": {"norad_id": 32711, "name": "GPS BIIRM-6 (PRN 07)", "group": "gnss", "lat": 22.761218448180372, "lon": -40.31054739412299, "alt_km": 20200.96199085282, "timestamp": "2025-12-18T08:58:43.652766+00:00", "meta": {"OBJECT_NAME": "GPS BIIRM-6 (PRN 07)", "OBJECT_ID": "2008-012A", "EPOCH": "2025-12-17T15:49:41.765088", "MEAN_MOTION": 2.00565872, "ECCENTRICITY": 0.02026437, "INCLINATION": 54.4776, "RA_OF_ASC_NODE": 157.1765, "ARG_OF_PERICENTER": 245.005, "MEAN_ANOMALY": 112.8804, "EPHEMERIS_TYPE": 0, "CLASSIFICATION_TYPE": "U", "NORAD_CAT_ID": 32711, "ELEMENT_SET_NO": 999, "REV_AT_EPOCH": 13011, "BSTAR": 0, "MEAN_MOTION_DOT": 7.7e-07, "MEAN_MOTION_DDOT": 0}, "tle": {"line1": "1 32711U 08012A   25351.65951117  .00000077  00000+0  00000+0 0  9998", "line2": "2 32711  54.4776 157.1765 0202643 245.0050 112.8804  2.00565872130119"}}, "geometry": {"type": "Point", "coordinates": [-40.31054739412299, 22.761218448180372]}}, {"type": "Feature", "properties": {"norad_id": 35752, "name": "GPS BIIRM-8 (PRN 05)", "group": "gnss", "lat": 4.645222078232732, "lon": -148.54913956635104, "alt_km": 20187.22585202645, "timestamp": "2025-12-18T08:58:43.652778+00:00", "meta": {"OBJECT_NAME": "GPS BIIRM-8 (PRN 05)", "OBJECT_ID": "2009-043A", "EPOCH": "2025-12-15T22:20:02.106816", "MEAN_MOTION": 2.00565586, "ECCENTRICITY": 0.00517182, "INCLINATION": 56.0932, "RA_OF_ASC_NODE": 34.6571, "ARG_OF_PERICENTER": 81.8462, "MEAN_ANOMALY": 127.6063, "EPHEMERIS_TYPE": 0, "CLASSIFICATION_TYPE": "U", "NORAD_CAT_ID": 35752, "ELEMENT_SET_NO": 999, "REV_AT_EPOCH": 11968, "BSTAR": 0, "MEAN_MOTION_DOT": -8.6e-07, "MEAN_MOTION_DDOT": 0}, "tle": {"line1": "1 35752U 09043A   25349.93057994 -.00000086  00000+0  00000+0 0  9990", "line2": "2 35752  56.0932  34.6571 0051718  81.8462 127.6063  2.00565586119683"}}, "geometry": {"type": "Point", "coordinates": [-148.54913956635104, 4.645222078232732]}}, {"type": "Feature", "properties": {"norad_id": 36111, "name": "COSMOS 2456 (730)", "group": "gnss", "lat": 33.93242422667065, "lon": -121.19087260894715, "alt_km": 19133.12006579008, "timestamp": "2025-12-18T08:58:43.652791+00:00", "meta": {"OBJECT_NAME": "COSMOS 2456 (730)", "OBJECT_ID": "2009-070A", "EPOCH": "2025-12-17T17:12:45.215136", "MEAN_MOTION": 2.13103683, "ECCENTRICITY": 0.00031115, "INCLINATION": 64.9035, "RA_OF_ASC_NODE": 77.1675, "ARG_OF_PERICENTER": 298.0972, "MEAN_ANOMALY": 59.8689, "EPHEMERIS_TYPE": 0, "CLASSIFICATION_TYPE": "U", "NORAD_CAT_ID": 36111, "ELEMENT_SET_NO": 999, "REV_AT_EPOCH": 12455, "BSTAR": 0, "MEAN_MOTION_DOT": -4.7e-07, "MEAN_MOTION_DDOT": 0}, "tle": {"line1": "1 36111U 09070A   25351.71718999 -.00000047  00000+0  00000+0 0  9995", "line2": "2 36111  64.9035  77.1675 0003111 298.0972  59.8689  2.13103683124556"}}, "geometry": {"type": "Point", "coordinates": [-121.19087260894715, 33.93242422667065]}}, {"type": "Feature", "properties": {"norad_id": 36112, "name": "COSMOS 2457 (733)", "group": "gnss", "lat": -64.89158113017224, "lon": -10.451064722469914, "alt_km": 19140.83401484168, "timestamp": "2025-12-18T08:58:43.652802+00:00", "meta": {"OBJECT_NAME": "COSMOS 2457 (733)", "OBJECT_ID": "2009-070B", "EPOCH": "2025-12-17T13:03:42.379200", "MEAN_MOTION": 2.13100979, "ECCENTRICITY": 0.00046214, "INCLINATION": 64.8886, "RA_OF_ASC_NODE": 77.0209, "ARG_OF_PERICENTER": 159.9242, "MEAN_ANOMALY": 194.4541, "EPHEMERIS_TYPE": 0, "CLASSIFICATION_TYPE": "U", "NORAD_CAT_ID": 36112, "ELEMENT_SET_NO": 999, "REV_AT_EPOCH": 12455, "BSTAR": 0, "MEAN_MOTION_DOT": -4.8e-07, "MEAN_MOTION_DDOT": 0}, "tle": {"line1": "1 36112U 09070B   25351.54424050 -.00000048  00000+0  00000+0 0  9990", "line2": "2 36112  64.8886  77.0209 0004621 159.9242 194.4541  2.13100979124552"}}, "geometry": {"type": "Point", "coordinates": [-10.451064722469914, -64.89158113017224]}}]}